COMMENT,ORIGINATOR,NORAD_CAT_ID,OBJECT_NAME,OBJECT_TYPE,CLASSIFICATION_TYPE,INTLDES,EPOCH,EPOCH_MICROSECONDS,MEAN_MOTION,ECCENTRICITY,INCLINATION,RA_OF_ASC_NODE,ARG_OF_PERICENTER,MEAN_ANOMALY,EPHEMERIS_TYPE,ELEMENT_SET_NO,REV_AT_EPOCH,BSTAR,MEAN_MOTION_DOT,MEAN_MOTION_DDOT,FILE,TLE_LINE0,TLE_LINE1,TLE_LINE2,OBJECT_ID,OBJECT_NUMBER,SEMIMAJOR_AXIS,PERIOD,APOGEE,PERIGEE,DECAYED
"GENERATED VIA SPACETRACK.ORG API","18 SPCS","48895","SPACEBEE-108","PAYLOAD","U","21059S","2023-02-15 20:51:49","345632","15.2283578","0.0008461","97.5785","181.8174","336.8837","23.2017","0","999","9087","0.0019196","0.00045125","0","3795153","0 SPACEBEE-108","1 48895U 21059S   23046.86932113  .00045125  00000-0  19196-2 0  9994","2 48895  97.5785 181.8174 0008461 336.8837  23.2017 15.22835780 90874","2021-059S","48895","6875.429","94.560","503.111","491.477","0"
"GENERATED VIA SPACETRACK.ORG API","18 SPCS","48895","SPACEBEE-108","PAYLOAD","U","21059S","2023-02-15 22:26:26","582496","15.22841108","0.0008463","97.5784","181.8837","336.6264","23.4586","0","999","9088","0.0019174","0.0004508","0","3795543","0 SPACEBEE-108","1 48895U 21059S   23046.93502989  .00045080  00000-0  19174-2 0  9992","2 48895  97.5784 181.8837 0008463 336.6264  23.4586 15.22841108 90888","2021-059S","48895","6875.413","94.560","503.096","491.459","0"
"GENERATED VIA SPACETRACK.ORG API","18 SPCS","48895","SPACEBEE-108","PAYLOAD","U","21059S","2023-02-16 14:12:37","692288","15.22900275","0.0008489","97.5786","182.5469","334.0018","26.079","0","999","9098","0.0019369","0.00045622","0","3798293","0 SPACEBEE-108","1 48895U 21059S   23047.59210292  .00045622  00000-0  19369-2 0  9996","2 48895  97.5786 182.5469 0008489 334.0018  26.0790 15.22900275 90984","2021-059S","48895","6875.235","94.556","502.936","491.263","0"
"GENERATED VIA SPACETRACK.ORG API","18 SPCS","48895","SPACEBEE-108","PAYLOAD","U","21059S","2023-02-16 22:05:42","415584","15.22928698","0.0008493","97.5787","182.8785","332.8563","27.2228","0","999","9103","0.0018283","0.00043082","0","3799178","0 SPACEBEE-108","1 48895U 21059S   23047.92062981  .00043082  00000-0  18283-2 0  9995","2 48895  97.5787 182.8785 0008493 332.8563  27.2228 15.22928698 91030","2021-059S","48895","6875.149","94.555","502.853","491.175","0"
"GENERATED VIA SPACETRACK.ORG API","18 SPCS","48895","SPACEBEE-108","PAYLOAD","U","21059S","2023-02-17 07:33:23","520384","15.22953044","0.0008528","97.5788","183.2766","331.7399","28.3373","0","999","9109","0.001425","0.00033544","0","3801235","0 SPACEBEE-108","1 48895U 21059S   23048.31485556  .00033544  00000-0  14250-2 0  9998","2 48895  97.5788 183.2766 0008528 331.7399  28.3373 15.22953044 91091","2021-059S","48895","6875.076","94.553","502.804","491.078","0"
"GENERATED VIA SPACETRACK.ORG API","18 SPCS","48895","SPACEBEE-108","PAYLOAD","U","21059S","2023-02-17 07:33:23","520384","15.22953044","0.0008528","97.5788","183.2766","331.7399","28.3373","0","999","9109","0.001425","0.00033544","0","3802730","0 SPACEBEE-108","1 48895U 21059S   23048.31485556  .00033544  00000-0  14250-2 0  9998","2 48895  97.5788 183.2766 0008528 331.7399  28.3373 15.22953044 91091","2021-059S","48895","6875.076","94.553","502.804","491.078","0"
"GENERATED VIA SPACETRACK.ORG API","18 SPCS","48895","SPACEBEE-108","PAYLOAD","U","21059S","2023-02-17 20:10:17","384736","15.22986918","0.0008501","97.579","183.8071","330.2104","29.8647","0","999","9117","0.0012183","0.00028677","0","3804075","0 SPACEBEE-108","1 48895U 21059S   23048.84047899  .00028677  00000-0  12183-2 0  9994","2 48895  97.5790 183.8071 0008501 330.2104  29.8647 15.22986918 91173","2021-059S","48895","6874.974","94.551","502.683","490.995","0"
"GENERATED VIA SPACETRACK.ORG API","18 SPCS","48895","SPACEBEE-108","PAYLOAD","U","21059S","2023-02-18 15:05:36","514176","15.23030741","0.0008407","97.5795","184.6027","327.7247","32.3474","0","999","9129","0.00115","0.00027094","0","3807124","0 SPACEBEE-108","1 48895U 21059S   23049.62889484  .00027094  00000-0  11500-2 0  9999","2 48895  97.5795 184.6027 0008407 327.7247  32.3474 15.23030741 91297","2021-059S","48895","6874.842","94.548","502.487","490.927","0"
"GENERATED VIA SPACETRACK.ORG API","18 SPCS","48895","SPACEBEE-108","PAYLOAD","U","21059S","2023-02-18 15:05:36","514176","15.23030741","0.0008407","97.5795","184.6027","327.7247","32.3474","0","999","9129","0.00115","0.00027094","0","3807310","0 SPACEBEE-108","1 48895U 21059S   23049.62889484  .00027094  00000-0  11500-2 0  9999","2 48895  97.5795 184.6027 0008407 327.7247  32.3474 15.23030741 91297","2021-059S","48895","6874.842","94.548","502.487","490.927","0"
"GENERATED VIA SPACETRACK.ORG API","18 SPCS","48895","SPACEBEE-108","PAYLOAD","U","21059S","2023-02-19 14:44:42","787104","15.23081257","0.0008401","97.5797","185.5976","323.6106","36.4558","0","999","9144","0.0010611","0.00025024","0","3811610","0 SPACEBEE-108","1 48895U 21059S   23050.61438411  .00025024  00000-0  10611-2 0  9993","2 48895  97.5797 185.5976 0008401 323.6106  36.4558 15.23081257 91448","2021-059S","48895","6874.690","94.545","502.331","490.780","0"
"GENERATED VIA SPACETRACK.ORG API","18 SPCS","48895","SPACEBEE-108","PAYLOAD","U","21059S","2023-02-19 22:37:44","242752","15.2309894","0.0008393","97.5799","185.9293","322.2841","37.7806","0","999","9149","0.0010615","0.00025047","0","3813614","0 SPACEBEE-108","1 48895U 21059S   23050.94287318  .00025047  00000-0  10615-2 0  9996","2 48895  97.5799 185.9293 0008393 322.2841  37.7806 15.23098940 91499","2021-059S","48895","6874.637","94.544","502.272","490.732","0"
"GENERATED VIA SPACETRACK.ORG API","18 SPCS","48895","SPACEBEE-108","PAYLOAD","U","21059S","2023-02-20 08:05:21","567552","15.23120149","0.0008473","97.58","186.3274","320.9097","39.1526","0","999","9155","0.0011162","0.00026363","0","3815761","0 SPACEBEE-108","1 48895U 21059S   23051.33705518  .00026363  00000-0  11162-2 0  9997","2 48895  97.5800 186.3274 0008473 320.9097  39.1526 15.23120149 91552","2021-059S","48895","6874.573","94.543","502.263","490.613","0"
"GENERATED VIA SPACETRACK.ORG API","18 SPCS","48895","SPACEBEE-108","PAYLOAD","U","21059S","2023-02-21 07:44:22","822368","15.23175418","0.0008448","97.5799","187.3221","317.4189","42.6391","0","999","9170","0.0012244","0.00028983","0","3818721","0 SPACEBEE-108","1 48895U 21059S   23052.32248637  .00028983  00000-0  12244-2 0  9993","2 48895  97.5799 187.3221 0008448 317.4189  42.6391 15.23175418 91702","2021-059S","48895","6874.407","94.539","502.079","490.464","0"
"GENERATED VIA SPACETRACK.ORG API","18 SPCS","48895","SPACEBEE-108","PAYLOAD","U","21059S","2023-02-21 14:02:46","572864","15.23193268","0.0008423","97.5799","187.5872","316.4796","43.5775","0","999","9174","0.001309","0.00031015","0","3819803","0 SPACEBEE-108","1 48895U 21059S   23052.58526126  .00031015  00000-0  13090-2 0  9993","2 48895  97.5799 187.5872 0008423 316.4796  43.5775 15.23193268 91745","2021-059S","48895","6874.353","94.538","502.008","490.428","0"
"GENERATED VIA SPACETRACK.ORG API","18 SPCS","48895","SPACEBEE-108","PAYLOAD","U","21059S","2023-02-21 21:55:45","942816","15.23214136","0.0008374","97.5802","187.9189","315.4334","44.6228","0","999","9179","0.0012932","0.00030657","0","3821329","0 SPACEBEE-108","1 48895U 21059S   23052.91372619  .00030657  00000-0  12932-2 0  9991","2 48895  97.5802 187.9189 0008374 315.4334  44.6228 15.23214136 91795","2021-059S","48895","6874.290","94.537","501.912","490.399","0"
"GENERATED VIA SPACETRACK.ORG API","18 SPCS","48895","SPACEBEE-108","PAYLOAD","U","21059S","2023-02-22 08:57:56","437632","15.23239152","0.0008408","97.5807","188.3837","314.2021","45.8524","0","999","9186","0.0011186","0.00026513","0","3822907","0 SPACEBEE-108","1 48895U 21059S   23053.37356988  .00026513  00000-0  11186-2 0  9999","2 48895  97.5807 188.3837 0008408 314.2021  45.8524 15.23239152 91868","2021-059S","48895","6874.215","94.535","501.860","490.300","0"
"GENERATED VIA SPACETRACK.ORG API","18 SPCS","48895","SPACEBEE-108","PAYLOAD","U","21059S","2023-02-22 08:57:56","437632","15.23239152","0.0008408","97.5807","188.3837","314.2021","45.8524","0","999","9186","0.0011186","0.00026513","0","3824148","0 SPACEBEE-108","1 48895U 21059S   23053.37356988  .00026513  00000-0  11186-2 0  9999","2 48895  97.5807 188.3837 0008408 314.2021  45.8524 15.23239152 91868","2021-059S","48895","6874.215","94.535","501.860","490.300","0"
"GENERATED VIA SPACETRACK.ORG API","18 SPCS","48895","SPACEBEE-108","PAYLOAD","U","21059S","2023-02-22 21:34:41","922048","15.23268783","0.000838","97.581","188.914","312.2996","47.7529","0","999","9194","0.0011342","0.00026909","0","3825529","0 SPACEBEE-108","1 48895U 21059S   23053.89909632  .00026909  00000-0  11342-2 0  9999","2 48895  97.5810 188.9140 0008380 312.2996  47.7529 15.23268783 91940","2021-059S","48895","6874.126","94.534","501.751","490.230","0"
"GENERATED VIA SPACETRACK.ORG API","18 SPCS","48895","SPACEBEE-108","PAYLOAD","U","21059S","2023-02-23 08:36:50","962752","15.23297863","0.0008378","97.5809","189.3784","310.759","49.2918","0","999","9201","0.0013157","0.00031272","0","3828819","0 SPACEBEE-108","1 48895U 21059S   23054.35892318  .00031272  00000-0  13157-2 0  9998","2 48895  97.5809 189.3784 0008378 310.7590  49.2918 15.23297863 92016","2021-059S","48895","6874.038","94.532","501.662","490.144","0"
"GENERATED VIA SPACETRACK.ORG API","18 SPCS","48895","SPACEBEE-108","PAYLOAD","U","21059S","2023-02-23 08:36:50","962752","15.23297863","0.0008378","97.5809","189.3784","310.759","49.2918","0","999","9201","0.0013157","0.00031272","0","3829176","0 SPACEBEE-108","1 48895U 21059S   23054.35892318  .00031272  00000-0  13157-2 0  9998","2 48895  97.5809 189.3784 0008378 310.7590  49.2918 15.23297863 92016","2021-059S","48895","6874.038","94.532","501.662","490.144","0"
